NORAD_CAT_ID,OBJECT_NAME,OBJECT_TYPE,EPOCH,MEAN_MOTION,ECCENTRICITY,INCLINATION,RA_OF_ASC_NODE,ARG_OF_PERICENTER,MEAN_ANOMALY,BSTAR,MEAN_MOTION_DOT,MEAN_MOTION_DDOT,TLE_LINE0,TLE_LINE1,TLE_LINE2,SEMIMAJOR_AXIS,PERIOD,APOGEE,PERIGEE,DECAYED
54102.0,STARLINK-5179,PAYLOAD,2023-05-30 10:43:51,15.0883503,0.0001115,53.2163,206.8281,87.5058,272.6062,-6.4608e-05,-1.316e-05,0.0,0 STARLINK-5179,1 54102U 22136BD  23150.44712157 -.00001316  00000-0 -64608-4 0  9999,2 54102  53.2163 206.8281 0001115  87.5058 272.6062 15.08835030 33871,6917.896,95.438,540.532,538.989,0.0
54102.0,STARLINK-5179,PAYLOAD,2023-05-30 20:16:10,15.0883515,0.0001097,53.216,205.043,90.6247,269.4871,-4.5467e-05,-1.011e-05,0.0,0 STARLINK-5179,1 54102U 22136BD  23150.84456147 -.00001011  00000-0 -45467-4 0  9991,2 54102  53.2160 205.0430 0001097  90.6247 269.4871 15.08835150 33931,6917.895,95.438,540.519,539.001,0.0
54102.0,STARLINK-5179,PAYLOAD,2023-05-31 10:34:37,15.08839565,0.0001035,53.2152,202.3652,86.7166,273.3945,2.3032e-05,7.9e-07,0.0,0 STARLINK-5179,1 54102U 22136BD  23151.44071695  .00000079  00000-0  23032-4 0  9994,2 54102  53.2152 202.3652 0001035  86.7166 273.3945 15.08839565 34498,6917.882,95.438,540.463,539.031,0.0
54102.0,STARLINK-5179,PAYLOAD,2023-05-31 20:06:57,15.08832978,0.0001196,53.2169,200.5823,97.5884,262.5244,4.1226e-05,3.68e-06,0.0,0 STARLINK-5179,1 54102U 22136BD  23151.83816131  .00000368  00000-0  41226-4 0  9995,2 54102  53.2169 200.5823 0001196  97.5884 262.5244 15.08832978 34089,6917.902,95.438,540.594,538.939,0.0
54102.0,STARLINK-5179,PAYLOAD,2023-06-01 10:25:25,15.08836057,0.0001045,53.2151,197.9042,83.7255,276.3856,6.9219e-05,8.14e-06,0.0,0 STARLINK-5179,1 54102U 22136BD  23152.43432033  .00000814  00000-0  69219-4 0  9995,2 54102  53.2151 197.9042 0001045  83.7255 276.3856 15.08836057 34178,6917.892,95.438,540.48,539.035,0.0
54102.0,STARLINK-5179,PAYLOAD,2023-06-01 19:57:44,15.08834557,0.0001112,53.2153,196.1199,84.0793,276.0326,4.2386e-05,3.87e-06,0.0,0 STARLINK-5179,1 54102U 22136BD  23152.83176328  .00000387  00000-0  42386-4 0  9992,2 54102  53.2153 196.1199 0001112  84.0793 276.0326 15.08834557 34239,6917.897,95.438,540.531,538.993,0.0
54102.0,STARLINK-5179,PAYLOAD,2023-06-02 02:19:16,15.08836516,0.0001144,53.2154,194.9305,87.9461,272.1662,1.6235e-05,-2.9e-07,0.0,0 STARLINK-5179,1 54102U 22136BD  23153.09672367 -.00000029  00000-0  16235-4 0  9993,2 54102  53.2154 194.9305 0001144  87.9461 272.1662 15.08836516 34747,6917.891,95.438,540.547,538.965,0.0
54102.0,STARLINK-5179,PAYLOAD,2023-06-02 10:16:12,15.08838685,0.0001148,53.2156,193.4431,83.4938,276.6185,1.5143e-06,-2.64e-06,0.0,0 STARLINK-5179,1 54102U 22136BD  23153.42792361 -.00000264  00000-0  15143-5 0  9996,2 54102  53.2156 193.4431 0001148  83.4938 276.6185 15.08838685 34329,6917.884,95.438,540.544,538.955,0.0
54102.0,STARLINK-5179,PAYLOAD,2023-06-03 10:07:00,15.08835727,0.0001191,53.2153,188.9826,83.117,276.9958,-1.0195e-05,-4.5e-06,0.0,0 STARLINK-5179,1 54102U 22136BD  23154.42152877 -.00000450  00000-0 -10195-4 0  9998,2 54102  53.2153 188.9826 0001191  83.1170 276.9958 15.08835727 34949,6917.893,95.438,540.582,538.935,0.0
54102.0,STARLINK-5179,PAYLOAD,2023-06-03 19:39:18,15.08837222,0.0001196,53.2156,187.1987,82.5367,277.5761,2.0796e-05,4.3e-07,0.0,0 STARLINK-5179,1 54102U 22136BD  23154.81896747  .00000043  00000-0  20796-4 0  9996,2 54102  53.2156 187.1987 0001196  82.5367 277.5761 15.08837222 34533,6917.889,95.438,540.581,538.927,0.0
54102.0,STARLINK-5179,PAYLOAD,2023-06-04 08:22:23,15.08840475,0.0001177,53.2156,184.82,79.691,280.4215,6.1408e-05,6.9e-06,0.0,0 STARLINK-5179,1 54102U 22136BD  23155.34888453  .00000690  00000-0  61408-4 0  9993,2 54102  53.2156 184.8200 0001177  79.6910 280.4215 15.08840475 35087,6917.879,95.438,540.558,538.93,0.0
54102.0,STARLINK-5179,PAYLOAD,2023-06-04 19:30:05,15.08840274,0.0001178,53.2157,182.7385,79.063,281.0495,6.5541e-05,7.55e-06,0.0,0 STARLINK-5179,1 54102U 22136BD  23155.81256412  .00000755  00000-0  65541-4 0  9993,2 54102  53.2157 182.7385 0001178  79.0630 281.0495 15.08840274 34682,6917.88,95.438,540.559,538.93,0.0
54102.0,STARLINK-5179,PAYLOAD,2023-06-05 11:23:56,15.08841802,0.0001127,53.2154,179.7646,79.8382,280.2737,7.4332e-05,8.95e-06,0.0,0 STARLINK-5179,1 54102U 22136BD  23156.47496238  .00000895  00000-0  74332-4 0  9991,2 54102  53.2154 179.7646 0001127  79.8382 280.2737 15.08841802 34780,6917.875,95.437,540.52,538.96,0.0
54102.0,STARLINK-5179,PAYLOAD,2023-06-06 09:39:21,15.08838247,0.000112,53.215,175.6008,83.7984,276.3136,-1.7643e-05,-5.69e-06,0.0,0 STARLINK-5179,1 54102U 22136BD  23157.40232730 -.00000569  00000-0 -17643-4 0  9992,2 54102  53.2150 175.6008 0001120  83.7984 276.3136 15.08838247 35394,6917.886,95.438,540.526,538.976,0.0
54102.0,STARLINK-5179,PAYLOAD,2023-06-06 11:14:44,15.08837831,0.0001139,53.2151,175.3037,82.4627,277.6495,-1.9431e-05,-5.97e-06,0.0,0 STARLINK-5179,1 54102U 22136BD  23157.46856775 -.00000597  00000-0 -19431-4 0  9997,2 54102  53.2151 175.3037 0001139  82.4627 277.6495 15.08837831 34933,6917.887,95.438,540.54,538.964,0.0
54102.0,STARLINK-5179,PAYLOAD,2023-06-07 11:05:31,15.08839324,0.0001094,53.215,170.8435,80.1438,279.9677,3.3204e-07,-2.83e-06,0.0,0 STARLINK-5179,1 54102U 22136BD  23158.46216673 -.00000283  00000-0  33204-6 0  9992,2 54102  53.2150 170.8435 0001094  80.1438 279.9677 15.08839324 35554,6917.882,95.438,540.504,538.991,0.0
54102.0,STARLINK-5179,PAYLOAD,2023-06-07 17:27:03,15.08840362,0.0001069,53.215,169.654,80.1362,279.975,-5.1538e-05,-1.108e-05,0.0,0 STARLINK-5179,1 54102U 22136BD  23158.72712777 -.00001108  00000-0 -51538-4 0  9993,2 54102  53.2150 169.6540 0001069  80.1362 279.9750 15.08840362 35124,6917.879,95.438,540.484,539.005,0.0
54102.0,STARLINK-5179,PAYLOAD,2023-06-08 09:20:55,15.08836745,0.0001087,53.215,166.6804,78.6956,281.4158,4.144e-05,3.72e-06,0.0,0 STARLINK-5179,1 54102U 22136BD  23159.38952886  .00000372  00000-0  41440-4 0  9994,2 54102  53.2150 166.6804 0001087  78.6956 281.4158 15.08836745 35226,6917.89,95.438,540.507,539.003,0.0
54102.0,STARLINK-5179,PAYLOAD,2023-06-08 17:17:51,15.08836221,0.000109,53.2149,165.1935,78.073,282.0384,3.6351e-05,2.91e-06,0.0,0 STARLINK-5179,1 54102U 22136BD  23159.72073005  .00000291  00000-0  36351-4 0  9994,2 54102  53.2149 165.1935 0001090  78.0730 282.0384 15.08836221 35745,6917.892,95.438,540.511,539.003,0.0
54102.0,STARLINK-5179,PAYLOAD,2023-06-09 09:11:42,15.08838804,0.0001082,53.2149,162.2197,78.9083,281.2031,3.7895e-05,3.15e-06,0.0,0 STARLINK-5179,1 54102U 22136BD  23160.38312946  .00000315  00000-0  37895-4 0  9999,2 54102  53.2149 162.2197 0001082  78.9083 281.2031 15.08838804 35372,6917.884,95.438,540.498,539.001,0.0
54102.0,STARLINK-5179,PAYLOAD,2023-06-09 17:08:38,15.08836796,0.0001075,53.2151,160.7325,81.3091,278.8023,1.6001e-05,-3.3e-07,0.0,0 STARLINK-5179,1 54102U 22136BD  23160.71433169 -.00000033  00000-0  16001-4 0  9991,2 54102  53.2151 160.7325 0001075  81.3091 278.8023 15.08836796 35427,6917.89,95.438,540.499,539.012,0.0
54102.0,STARLINK-5179,PAYLOAD,2023-06-09 23:30:11,15.0883417,0.0001101,53.2151,159.5432,82.7199,277.3918,6.2174e-06,-1.89e-06,0.0,0 STARLINK-5179,1 54102U 22136BD  23160.97929443 -.00000189  00000-0  62174-5 0  9999,2 54102  53.2151 159.5432 0001101  82.7199 277.3918 15.08834170 35933,6917.898,95.438,540.525,539.002,0.0
54102.0,STARLINK-5179,PAYLOAD,2023-06-10 09:02:29,15.0883667,0.0001117,53.2151,157.7581,81.8867,278.2252,1.1724e-05,-1.01e-06,0.0,0 STARLINK-5179,1 54102U 22136BD  23161.37673369 -.00000101  00000-0  11724-4 0  9995,2 54102  53.2151 157.7581 0001117  81.8867 278.2252 15.08836670 35520,6917.891,95.438,540.528,538.983,0.0
54102.0,STARLINK-5179,PAYLOAD,2023-06-11 05:42:30,15.08841961,0.0001132,53.2151,153.8935,82.6823,277.4298,4.9553e-05,5.01e-06,0.0,0 STARLINK-5179,1 54102U 22136BD  23162.23784973  .00000501  00000-0  49553-4 0  9999,2 54102  53.2151 153.8935 0001132  82.6823 277.4298 15.08841961 36125,6917.874,95.437,540.522,538.956,0.0
54102.0,STARLINK-5179,PAYLOAD,2023-06-11 16:50:12,15.08842486,0.0001075,53.2151,151.8123,87.4997,272.6118,5.2169e-05,5.43e-06,0.0,0 STARLINK-5179,1 54102U 22136BD  23162.70152853  .00000543  00000-0  52169-4 0  9990,2 54102  53.2151 151.8123 0001075  87.4997 272.6118 15.08842486 35729,6917.873,95.437,540.481,538.994,0.0
54102.0,STARLINK-5179,PAYLOAD,2023-06-12 16:40:59,15.08840829,0.0001171,53.2157,147.352,81.4112,278.7012,3.7112e-05,3.03e-06,0.0,0 STARLINK-5179,1 54102U 22136BD  23163.69512952  .00000303  00000-0  37112-4 0  9994,2 54102  53.2157 147.3520 0001171  81.4112 278.7012 15.08840829 36344,6917.878,95.438,540.553,538.933,0.0
54102.0,STARLINK-5179,PAYLOAD,2023-06-13 08:34:50,15.08847215,0.0001149,53.2157,144.3785,86.9895,273.1228,-0.00011336,-2.092e-05,0.0,0 STARLINK-5179,1 54102U 22136BD  23164.35752977 -.00002092  00000-0 -11336-3 0  9999,2 54102  53.2157 144.3785 0001149  86.9895 273.1228 15.08847215 35979,6917.858,95.437,540.518,538.928,0.0
54102.0,STARLINK-5179,PAYLOAD,2023-06-13 22:53:19,15.08837342,0.0001231,53.2159,141.7014,91.0256,269.0878,-3.3288e-05,-8.18e-06,0.0,0 STARLINK-5179,1 54102U 22136BD  23164.95369427 -.00000818  00000-0 -33288-4 0  9994,2 54102  53.2159 141.7014 0001231  91.0256 269.0878 15.08837342 36535,6917.889,95.438,540.605,538.902,0.0
54102.0,STARLINK-5179,PAYLOAD,2023-06-14 02:04:05,15.08838821,0.0001222,53.2159,141.1064,91.1552,268.958,-1.7601e-05,-5.68e-06,0.0,0 STARLINK-5179,1 54102U 22136BD  23165.08617291 -.00000568  00000-0 -17601-4 0  9997,2 54102  53.2159 141.1064 0001222  91.1552 268.9580 15.08838821 36085,6917.884,95.438,540.594,538.904,0.0
54102.0,STARLINK-5179,PAYLOAD,2023-06-15 01:54:52,15.08832462,0.0001202,53.216,136.6459,90.5233,269.5897,1.7668e-05,-7e-08,0.0,0 STARLINK-5179,1 54102U 22136BD  23166.07977781 -.00000007  00000-0  17668-4 0  9990,2 54102  53.2160 136.6459 0001202  90.5233 269.5897 15.08832462 36703,6917.903,95.438,540.6,538.937,0.0
